[{"OBJECT_NAME":"STARLINK-31011","OBJECT_ID":"2023-191K","EPOCH":"2026-03-09T09:54:52.523424","MEAN_MOTION":15.26744803,"ECCENTRICITY":8.44e-5,"INCLINATION":42.9999,"RA_OF_ASC_NODE":104.5994,"ARG_OF_PERICENTER":246.5904,"MEAN_ANOMALY":113.4858,"EPHEMERIS_TYPE":0,"CLASSIFICATION_TYPE":"U","NORAD_CAT_ID":58517,"ELEMENT_SET_NO":999,"REV_AT_EPOCH":12543,"BSTAR":-1.6462929e-5,"MEAN_MOTION_DOT":-7.01e-6,"MEAN_MOTION_DDOT":0},{"OBJECT_NAME":"FLOCK 4G-26","OBJECT_ID":"2025-009AA","EPOCH":"2026-03-09T19:19:02.910720","MEAN_MOTION":15.27281631,"ECCENTRICITY":0.0001988,"INCLINATION":97.4054,"RA_OF_ASC_NODE":151.3913,"ARG_OF_PERICENTER":299.1273,"MEAN_ANOMALY":60.9767,"EPHEMERIS_TYPE":0,"CLASSIFICATION_TYPE":"U","NORAD_CAT_ID":62633,"ELEMENT_SET_NO":999,"REV_AT_EPOCH":6373,"BSTAR":0.00042468806,"MEAN_MOTION_DOT":0.00011283,"MEAN_MOTION_DDOT":0}]
